[{"OBJECT_NAME":"ICEYE-X7","OBJECT_ID":"2020-068L","EPOCH":"2026-03-09T22:52:28.702272","MEAN_MOTION":15.29152508,"ECCENTRICITY":0.00068409,"INCLINATION":97.7412,"RA_OF_ASC_NODE":31.2076,"ARG_OF_PERICENTER":332.3045,"MEAN_ANOMALY":27.7829,"EPHEMERIS_TYPE":0,"CLASSIFICATION_TYPE":"U","NORAD_CAT_ID":46496,"ELEMENT_SET_NO":999,"REV_AT_EPOCH":29961,"BSTAR":0.0005654802,"MEAN_MOTION_DOT":0.00015947,"MEAN_MOTION_DDOT":0},{"OBJECT_NAME":"STARLINK-35829","OBJECT_ID":"2025-254C","EPOCH":"2026-03-09T17:36:47.851488","MEAN_MOTION":15.30204476,"ECCENTRICITY":0.00011278,"INCLINATION":53.1581,"RA_OF_ASC_NODE":232.1638,"ARG_OF_PERICENTER":64.5274,"MEAN_ANOMALY":295.5843,"EPHEMERIS_TYPE":0,"CLASSIFICATION_TYPE":"U","NORAD_CAT_ID":66350,"ELEMENT_SET_NO":999,"REV_AT_EPOCH":1898,"BSTAR":0.00091256308,"MEAN_MOTION_DOT":0.00026769,"MEAN_MOTION_DDOT":0}]
